[{"name":"JILIN-1 08","line1":"1 43160U 18008F   26177.55318028  .00005788  00000+0  17921-3 0  9996","line2":"2 43160  97.1802 196.5386 0007485  54.3525 305.8415 15.33812688466387"},{"name":"S-NET D","line1":"1 43186U 18014G   26177.43433911  .00005113  00000+0  26387-3 0  9995","line2":"2 43186  97.5360  82.1673 0007935   0.1478 359.9756 15.16753072460163"},{"name":"S-NET B","line1":"1 43187U 18014H   26177.31402529  .00005262  00000+0  27165-3 0  9994","line2":"2 43187  97.5365  82.0347 0008364 355.2448   4.8704 15.16723298460148"},{"name":"S-NET A","line1":"1 43188U 18014J   26176.97136337  .00005346  00000+0  27568-3 0  9997","line2":"2 43188  97.5376  81.9043 0008359 357.0429   3.0753 15.16756821460092"},{"name":"S-NET C","line1":"1 43189U 18014K   26177.44989497  .00004850  00000+0  25065-3 0  9993","line2":"2 43189  97.5390  82.4565 0009386 346.0321  14.0650 15.16715719458719"},{"name":"PAZ","line1":"1 43215U 18020A   26177.59203959  .00001739  00000+0  85969-4 0  9991","line2":"2 43215  97.4448 184.8440 0001693  86.9923 273.1505 15.19151186462438"},{"name":"GOES 17","line1":"1 43226U 18022A   26177.57660811 -.00000172  00000+0  00000+0 0  9996","line2":"2 43226   0.9605  85.5564 0000688  24.3401 282.8707  1.00272772 30519"},{"name":"LKW-4","line1":"1 43236U 18025A   26177.42886886  .00044935  00000+0  49527-3 0  9991","line2":"2 43236  97.6341 349.0312 0002330 246.7693 113.3319 15.62991552461475"},{"name":"ZHUHAI-1 OVS-02","line1":"1 43440U 18040B   26177.74536743  .00006903  00000+0  27802-3 0  9999","line2":"2 43440  97.0384 194.4082 0002888 187.3718 172.7479 15.25144684454175"},{"name":"ZHUHAI-1 OHS-02","line1":"1 43441U 18040C   26177.72507516  .00007721  00000+0  30240-3 0  9993","line2":"2 43441  97.0368 201.3381 0009260 183.8672 176.2497 15.26012510115737"},{"name":"GAOFEN-6","line1":"1 43484U 18048A   26176.81301529  .00000286  00000+0  48573-4 0  9991","line2":"2 43484  98.0567 239.4730 0011702 138.2343 221.9762 14.76423510434668"},{"name":"LUOJIA-1 01","line1":"1 43485U 18048B   26177.72761130  .00002288  00000+0  25928-3 0  9993","line2":"2 43485  97.8107 255.7628 0010523  90.0907 270.1515 14.87320480435638"},{"name":"PAKTES 1A","line1":"1 43529U 18056A   26177.61625990  .00000978  00000+0  85489-4 0  9995","line2":"2 43529  98.1280 334.5055 0021215  77.1103 283.2487 14.99133660433330"},{"name":"PRSS-1","line1":"1 43530U 18056B   26177.64237241  .00001042  00000+0  13781-3 0  9996","line2":"2 43530  97.7821 245.2506 0001524  74.7302 285.4080 14.82003383429835"},{"name":"HAIYANG-1C","line1":"1 43609U 18068A   26177.59370957  .00000401  00000+0  15837-3 0  9994","line2":"2 43609  98.5192 249.7660 0012087  69.1317 291.1161 14.34182603408439"},{"name":"SSTL S1-4","line1":"1 43618U 18071A   26177.58506876  .00001178  00000+0  10942-3 0  9992","line2":"2 43618  97.5021  48.8077 0001836 114.4173 245.7241 14.96174316424345"},{"name":"HAIYANG-2B","line1":"1 43655U 18081A   26177.59304137 -.00000119  00000+0 -72916-4 0  9997","line2":"2 43655  99.3286 186.2072 0000027 191.3025 168.8126 13.79307250386228"},{"name":"CFOSAT","line1":"1 43662U 18083A   26177.72801494  .00003103  00000+0  16295-3 0  9991","line2":"2 43662  97.3602 181.9774 0002359  84.6719 275.4783 15.16429720423889"},{"name":"TEN-KOH","line1":"1 43677U 18084G   26177.51100830  .00001590  00000+0  12308-3 0  9990","line2":"2 43677  98.0755  10.2683 0011251  87.7097 272.5415 15.02971260417563"},{"name":"DIWATA-2B","line1":"1 43678U 18084H   26177.70610935  .00002698  00000+0  21902-3 0  9994","line2":"2 43678  98.1205  14.3297 0013043 140.2716 219.9465 15.00493099417641"},{"name":"STARS-AO","line1":"1 43679U 18084J   26177.30752926  .00006321  00000+0  32227-3 0  9997","line2":"2 43679  98.0499  31.8413 0003453 118.3340 241.8240 15.17146991418856"},{"name":"AUTCUBE 2","line1":"1 43681U 18084K   26177.50695821  .00003835  00000+0  23923-3 0  9992","line2":"2 43681  98.0704  24.1755 0009303  21.1897 338.9714 15.10149600418330"},{"name":"METOP-C","line1":"1 43689U 18087A   26177.71111338  .00000084  00000+0  58166-4 0  9993","line2":"2 43689  98.6641 237.1405 0002044 117.4162 242.7224 14.21514450396187"},{"name":"ES'HAIL 2","line1":"1 43700U 18090A   26177.74205801  .00000156  00000+0  00000+0 0  9992","line2":"2 43700   0.0090 302.7911 0002132 185.1403  79.8583  1.00270519 27776"},{"name":"MOHAMMED VI-B","line1":"1 43717U 18095A   26177.72837301  .00000905  00000+0  13537-3 0  9994","line2":"2 43717  97.9557 249.9227 0001510  96.7930 263.3452 14.77060560409590"},{"name":"HYSIS","line1":"1 43719U 18096A   26177.68544881  .00001753  00000+0  24645-3 0  9994","line2":"2 43719  97.9840 244.3593 0001838  92.3721 267.7700 14.78636493408829"},{"name":"COSMOS 2530 (RODNIK-S *)","line1":"1 43751U 18097A   26177.71442656 -.00000098  00000+0 -78193-3 0  9992","line2":"2 43751  82.5135 216.3680 0019801  19.4521 340.7310 12.42880832343470"},{"name":"COSMOS 2531 (RODNIK-S *)","line1":"1 43752U 18097B   26177.73646757  .00000046  00000+0  25966-3 0  9994","line2":"2 43752  82.5182 217.4160 0017393  38.4935 321.7382 12.42912683343492"},{"name":"COSMOS 2532 (RODNIK-S *)","line1":"1 43753U 18097C   26177.76476292  .00000010  00000+0 -14284-5 0  9998","line2":"2 43753  82.5126 216.1800 0018809  40.2981 319.9489 12.42909901343466"}]