OBJECT_NAME,OBJECT_ID,EPOCH,MEAN_MOTION,ECCENTRICITY,INCLINATION,RA_OF_ASC_NODE,ARG_OF_PERICENTER,MEAN_ANOMALY,EPHEMERIS_TYPE,CLASSIFICATION_TYPE,NORAD_CAT_ID,ELEMENT_SET_NO,REV_AT_EPOCH,BSTAR,MEAN_MOTION_DOT,MEAN_MOTION_DDOT
JILIN-1 08,2018-008F,2026-06-26T13:16:34.776192,15.33812688,.00074854,97.1802,196.5386,54.3525,305.8415,0,U,43160,999,46638,.17921036E-3,.5788E-4,0
S-NET D,2018-014G,2026-06-26T10:25:26.899104,15.16753072,.00079352,97.5360,82.1673,0.1478,359.9756,0,U,43186,999,46016,.26387311E-3,.5113E-4,0
S-NET B,2018-014H,2026-06-26T07:32:11.785056,15.16723298,.00083644,97.5365,82.0347,355.2448,4.8704,0,U,43187,999,46014,.27164646E-3,.5262E-4,0
S-NET A,2018-014J,2026-06-25T23:18:45.795168,15.16756821,.00083599,97.5376,81.9043,357.0429,3.0753,0,U,43188,999,46009,.27568138E-3,.5346E-4,0
S-NET C,2018-014K,2026-06-26T10:47:50.925408,15.16715719,.00093861,97.5390,82.4565,346.0321,14.0650,0,U,43189,999,45871,.25065032E-3,.485E-4,0
PAZ,2018-020A,2026-06-26T14:12:32.220576,15.19151186,.00016933,97.4448,184.8440,86.9923,273.1505,0,U,43215,999,46243,.85969309E-4,.1739E-4,0
GOES 17,2018-022A,2026-06-26T13:50:18.940704,1.00272772,.00006881,0.9605,85.5564,24.3401,282.8707,0,U,43226,999,3051,0,-.172E-5,0
LKW-4,2018-025A,2026-06-26T10:17:34.269504,15.62991552,.00023304,97.6341,349.0312,246.7693,113.3319,0,U,43236,999,46147,.49526546E-3,.44935E-3,0
ZHUHAI-1 OVS-02,2018-040B,2026-06-26T17:53:19.745952,15.25144684,.0002888,97.0384,194.4082,187.3718,172.7479,0,U,43440,999,45417,.27802E-3,.6903E-4,0
ZHUHAI-1 OHS-02,2018-040C,2026-06-26T17:24:06.493824,15.26012510,.000926,97.0368,201.3381,183.8672,176.2497,0,U,43441,999,11573,.3024E-3,.7721E-4,0
GAOFEN-6,2018-048A,2026-06-25T19:30:44.521056,14.76423510,.00117023,98.0567,239.4730,138.2343,221.9762,0,U,43484,999,43466,.48573015E-4,.286E-5,0
LUOJIA-1 01,2018-048B,2026-06-26T17:27:45.616320,14.87320480,.0010523,97.8107,255.7628,90.0907,270.1515,0,U,43485,999,43563,.25928E-3,.2288E-4,0
PAKTES 1A,2018-056A,2026-06-26T14:47:24.855360,14.99133660,.00212151,98.1280,334.5055,77.1103,283.2487,0,U,43529,999,43333,.85488828E-4,.978E-5,0
PRSS-1,2018-056B,2026-06-26T15:25:00.976224,14.82003383,.00015243,97.7821,245.2506,74.7302,285.4080,0,U,43530,999,42983,.13781416E-3,.1042E-4,0
HAIYANG-1C,2018-068A,2026-06-26T14:14:56.506848,14.34182603,.00120874,98.5192,249.7660,69.1317,291.1161,0,U,43609,999,40843,.1583739E-3,.401E-5,0
SSTL S1-4,2018-071A,2026-06-26T14:02:29.940864,14.96174316,.00018363,97.5021,48.8077,114.4173,245.7241,0,U,43618,999,42434,.10942348E-3,.1178E-4,0
HAIYANG-2B,2018-081A,2026-06-26T14:13:58.774368,13.79307250,.00000274,99.3286,186.2072,191.3025,168.8126,0,U,43655,999,38622,-.72915544E-4,-.119E-5,0
CFOSAT,2018-083A,2026-06-26T17:28:20.490816,15.16429720,.0002359,97.3602,181.9774,84.6719,275.4783,0,U,43662,999,42388,.16295E-3,.3103E-4,0
TEN-KOH,2018-084G,2026-06-26T12:15:51.117120,15.02971260,.0011251,98.0755,10.2683,87.7097,272.5415,0,U,43677,999,41756,.12308E-3,.159E-4,0
DIWATA-2B,2018-084H,2026-06-26T16:56:47.847840,15.00493099,.0013043,98.1205,14.3297,140.2716,219.9465,0,U,43678,999,41764,.21902E-3,.2698E-4,0
STARS-AO,2018-084J,2026-06-26T07:22:50.528064,15.17146991,.0003453,98.0499,31.8413,118.3340,241.8240,0,U,43679,999,41885,.32227E-3,.6321E-4,0
AUTCUBE 2,2018-084K,2026-06-26T12:10:01.189344,15.10149600,.0009303,98.0704,24.1755,21.1897,338.9714,0,U,43681,999,41833,.23923E-3,.3835E-4,0
METOP-C,2018-087A,2026-06-26T17:04:00.196032,14.21514450,.0002044,98.6641,237.1405,117.4162,242.7224,0,U,43689,999,39618,.58166E-4,.84E-6,0
ES'HAIL 2,2018-090A,2026-06-26T17:48:33.812064,1.00270519,.0002132,0.0090,302.7911,185.1403,79.8583,0,U,43700,999,2777,0,.156E-5,0
MOHAMMED VI-B,2018-095A,2026-06-26T17:28:51.428064,14.77060560,.000151,97.9557,249.9227,96.7930,263.3452,0,U,43717,999,40959,.13537E-3,.905E-5,0
HYSIS,2018-096A,2026-06-26T16:27:02.777184,14.78636493,.0001838,97.9840,244.3593,92.3721,267.7700,0,U,43719,999,40882,.24645E-3,.1753E-4,0
COSMOS 2530 (RODNIK-S 16),2018-097A,2026-06-26T17:08:46.454784,12.42880832,.0019801,82.5135,216.3680,19.4521,340.7310,0,U,43751,999,34347,-.78193E-3,-.98E-6,0
COSMOS 2531 (RODNIK-S 17),2018-097B,2026-06-26T17:40:30.798048,12.42912683,.0017393,82.5182,217.4160,38.4935,321.7382,0,U,43752,999,34349,.25966E-3,.46E-6,0
COSMOS 2532 (RODNIK-S 18),2018-097C,2026-06-26T18:21:15.516288,12.42909901,.0018809,82.5126,216.1800,40.2981,319.9489,0,U,43753,999,34346,-.14284E-5,.1E-6,0
